{"fetched_at":"2026-07-24T07:06:09.639Z","source":"https://celestrak.org/NORAD/elements/gp.php?GROUP=planet&FORMAT=JSON","constellation":"superdove","records":[{"OBJECT_NAME":"FLOCK 4G-23","OBJECT_ID":"2025-009AQ","EPOCH":"2026-07-23T16:51:51.217632","CLASSIFICATION_TYPE":"U","MEAN_MOTION":15.3531774,"ECCENTRICITY":0.0003479,"INCLINATION":97.3918,"RA_OF_ASC_NODE":286.4129,"ARG_OF_PERICENTER":154.29,"MEAN_ANOMALY":205.8516,"EPHEMERIS_TYPE":0,"NORAD_CAT_ID":62647,"ELEMENT_SET_NO":999,"REV_AT_EPOCH":8452,"BSTAR":0.0013694,"MEAN_MOTION_DOT":0.00047128,"MEAN_MOTION_DDOT":0},{"OBJECT_NAME":"FLOCK 4G-34","OBJECT_ID":"2025-009AT","EPOCH":"2026-07-23T16:40:26.019840","CLASSIFICATION_TYPE":"U","MEAN_MOTION":15.29905935,"ECCENTRICITY":0.0002971,"INCLINATION":97.3953,"RA_OF_ASC_NODE":286.1033,"ARG_OF_PERICENTER":144.7918,"MEAN_ANOMALY":215.3519,"EPHEMERIS_TYPE":0,"NORAD_CAT_ID":62650,"ELEMENT_SET_NO":999,"REV_AT_EPOCH":8449,"BSTAR":0.00037226,"MEAN_MOTION_DOT":0.00010709,"MEAN_MOTION_DDOT":0},{"OBJECT_NAME":"FLOCK 4G-21","OBJECT_ID":"2025-009AU","EPOCH":"2026-07-23T04:54:18.959040","CLASSIFICATION_TYPE":"U","MEAN_MOTION":15.33305766,"ECCENTRICITY":0.0003722,"INCLINATION":97.3982,"RA_OF_ASC_NODE":286.6606,"ARG_OF_PERICENTER":169.9109,"MEAN_ANOMALY":190.2209,"EPHEMERIS_TYPE":0,"NORAD_CAT_ID":62651,"ELEMENT_SET_NO":999,"REV_AT_EPOCH":8447,"BSTAR":0.0012854,"MEAN_MOTION_DOT":0.00041476,"MEAN_MOTION_DDOT":0},{"OBJECT_NAME":"FLOCK 4G-31","OBJECT_ID":"2025-009AV","EPOCH":"2026-07-23T15:50:51.012096","CLASSIFICATION_TYPE":"U","MEAN_MOTION":15.29707527,"ECCENTRICITY":0.0002594,"INCLINATION":97.396,"RA_OF_ASC_NODE":286.0388,"ARG_OF_PERICENTER":143.9669,"MEAN_ANOMALY":216.1746,"EPHEMERIS_TYPE":0,"NORAD_CAT_ID":62652,"ELEMENT_SET_NO":999,"REV_AT_EPOCH":8448,"BSTAR":0.00035096,"MEAN_MOTION_DOT":0.00010029,"MEAN_MOTION_DDOT":0},{"OBJECT_NAME":"FLOCK 4G-4","OBJECT_ID":"2025-009BC","EPOCH":"2026-07-23T10:07:38.990784","CLASSIFICATION_TYPE":"U","MEAN_MOTION":15.32595333,"ECCENTRICITY":0.0005215,"INCLINATION":97.3934,"RA_OF_ASC_NODE":285.6446,"ARG_OF_PERICENTER":167.616,"MEAN_ANOMALY":192.5211,"EPHEMERIS_TYPE":0,"NORAD_CAT_ID":62659,"ELEMENT_SET_NO":999,"REV_AT_EPOCH":14205,"BSTAR":0.0012362,"MEAN_MOTION_DOT":0.00039002,"MEAN_MOTION_DDOT":0},{"OBJECT_NAME":"FLOCK 4G-6","OBJECT_ID":"2025-009BD","EPOCH":"2026-07-23T06:07:06.047040","CLASSIFICATION_TYPE":"U","MEAN_MOTION":15.3009193,"ECCENTRICITY":0.0003713,"INCLINATION":97.3929,"RA_OF_ASC_NODE":285.4894,"ARG_OF_PERICENTER":174.4329,"MEAN_ANOMALY":185.6953,"EPHEMERIS_TYPE":0,"NORAD_CAT_ID":62660,"ELEMENT_SET_NO":999,"REV_AT_EPOCH":14201,"BSTAR":0.00039718,"MEAN_MOTION_DOT":0.00011498,"MEAN_MOTION_DDOT":0},{"OBJECT_NAME":"FLOCK 4G-2","OBJECT_ID":"2025-009BE","EPOCH":"2026-07-23T04:21:02.126304","CLASSIFICATION_TYPE":"U","MEAN_MOTION":15.30446725,"ECCENTRICITY":0.000453,"INCLINATION":97.3997,"RA_OF_ASC_NODE":286.0695,"ARG_OF_PERICENTER":174.036,"MEAN_ANOMALY":186.0936,"EPHEMERIS_TYPE":0,"NORAD_CAT_ID":62661,"ELEMENT_SET_NO":999,"REV_AT_EPOCH":14203,"BSTAR":0.00037583,"MEAN_MOTION_DOT":0.00010996,"MEAN_MOTION_DDOT":0},{"OBJECT_NAME":"FLOCK 4G-5","OBJECT_ID":"2025-009BG","EPOCH":"2026-07-23T12:00:00.005184","CLASSIFICATION_TYPE":"U","MEAN_MOTION":15.31013938,"ECCENTRICITY":0.0004201,"INCLINATION":97.4018,"RA_OF_ASC_NODE":286.7965,"ARG_OF_PERICENTER":157.2958,"MEAN_ANOMALY":202.847,"EPHEMERIS_TYPE":0,"NORAD_CAT_ID":62663,"ELEMENT_SET_NO":999,"REV_AT_EPOCH":8449,"BSTAR":0.00030387,"MEAN_MOTION_DOT":0.00009032,"MEAN_MOTION_DDOT":0},{"OBJECT_NAME":"FLOCK 4G-1","OBJECT_ID":"2025-009BK","EPOCH":"2026-07-23T21:16:03.291744","CLASSIFICATION_TYPE":"U","MEAN_MOTION":15.3033411,"ECCENTRICITY":0.000483,"INCLINATION":97.4011,"RA_OF_ASC_NODE":286.7508,"ARG_OF_PERICENTER":169.6983,"MEAN_ANOMALY":190.4357,"EPHEMERIS_TYPE":0,"NORAD_CAT_ID":62666,"ELEMENT_SET_NO":999,"REV_AT_EPOCH":8452,"BSTAR":0.00037528,"MEAN_MOTION_DOT":0.00010942,"MEAN_MOTION_DDOT":0},{"OBJECT_NAME":"FLOCK 4G-14","OBJECT_ID":"2025-009BL","EPOCH":"2026-07-23T11:05:15.393408","CLASSIFICATION_TYPE":"U","MEAN_MOTION":15.29861517,"ECCENTRICITY":0.0005044,"INCLINATION":97.4016,"RA_OF_ASC_NODE":286.1193,"ARG_OF_PERICENTER":166.8365,"MEAN_ANOMALY":193.3007,"EPHEMERIS_TYPE":0,"NORAD_CAT_ID":62667,"ELEMENT_SET_NO":999,"REV_AT_EPOCH":8444,"BSTAR":0.00036612,"MEAN_MOTION_DOT":0.00010518,"MEAN_MOTION_DDOT":0},{"OBJECT_NAME":"FLOCK 4G-10","OBJECT_ID":"2025-009BP","EPOCH":"2026-07-23T11:20:10.535424","CLASSIFICATION_TYPE":"U","MEAN_MOTION":15.2996726,"ECCENTRICITY":0.0004558,"INCLINATION":97.3913,"RA_OF_ASC_NODE":285.4174,"ARG_OF_PERICENTER":181.9633,"MEAN_ANOMALY":178.1591,"EPHEMERIS_TYPE":0,"NORAD_CAT_ID":62670,"ELEMENT_SET_NO":999,"REV_AT_EPOCH":14208,"BSTAR":0.00039168,"MEAN_MOTION_DOT":0.00011295,"MEAN_MOTION_DDOT":0},{"OBJECT_NAME":"FLOCK 4G-36","OBJECT_ID":"2025-009BU","EPOCH":"2026-07-23T15:55:01.902144","CLASSIFICATION_TYPE":"U","MEAN_MOTION":15.29947662,"ECCENTRICITY":0.0005146,"INCLINATION":97.4004,"RA_OF_ASC_NODE":286.2409,"ARG_OF_PERICENTER":170.9919,"MEAN_ANOMALY":189.1415,"EPHEMERIS_TYPE":0,"NORAD_CAT_ID":62675,"ELEMENT_SET_NO":999,"REV_AT_EPOCH":8447,"BSTAR":0.00037338,"MEAN_MOTION_DOT":0.00010758,"MEAN_MOTION_DDOT":0},{"OBJECT_NAME":"FLOCK 4G-15","OBJECT_ID":"2025-009BX","EPOCH":"2026-07-23T11:21:40.964256","CLASSIFICATION_TYPE":"U","MEAN_MOTION":15.30069486,"ECCENTRICITY":0.0005224,"INCLINATION":97.4009,"RA_OF_ASC_NODE":286.1968,"ARG_OF_PERICENTER":170.2305,"MEAN_ANOMALY":189.9038,"EPHEMERIS_TYPE":0,"NORAD_CAT_ID":62678,"ELEMENT_SET_NO":999,"REV_AT_EPOCH":14209,"BSTAR":0.00049299,"MEAN_MOTION_DOT":0.00014288,"MEAN_MOTION_DDOT":0},{"OBJECT_NAME":"FLOCK 4G-30","OBJECT_ID":"2025-009BY","EPOCH":"2026-07-23T11:01:30.904608","CLASSIFICATION_TYPE":"U","MEAN_MOTION":15.34447601,"ECCENTRICITY":0.0004874,"INCLINATION":97.3903,"RA_OF_ASC_NODE":285.7464,"ARG_OF_PERICENTER":173.1312,"MEAN_ANOMALY":186.9999,"EPHEMERIS_TYPE":0,"NORAD_CAT_ID":62679,"ELEMENT_SET_NO":999,"REV_AT_EPOCH":14210,"BSTAR":0.0013298,"MEAN_MOTION_DOT":0.00044508,"MEAN_MOTION_DDOT":0},{"OBJECT_NAME":"FLOCK 4G-18","OBJECT_ID":"2025-009BZ","EPOCH":"2026-07-23T16:17:56.226336","CLASSIFICATION_TYPE":"U","MEAN_MOTION":15.32687313,"ECCENTRICITY":0.0006857,"INCLINATION":97.3989,"RA_OF_ASC_NODE":286.3481,"ARG_OF_PERICENTER":182.8798,"MEAN_ANOMALY":177.2406,"EPHEMERIS_TYPE":0,"NORAD_CAT_ID":62680,"ELEMENT_SET_NO":999,"REV_AT_EPOCH":14212,"BSTAR":0.0012354,"MEAN_MOTION_DOT":0.000391,"MEAN_MOTION_DDOT":0},{"OBJECT_NAME":"FLOCK 4G-17","OBJECT_ID":"2025-009CA","EPOCH":"2026-07-23T16:40:50.597184","CLASSIFICATION_TYPE":"U","MEAN_MOTION":15.30226164,"ECCENTRICITY":0.0004935,"INCLINATION":97.3913,"RA_OF_ASC_NODE":285.8797,"ARG_OF_PERICENTER":183.2906,"MEAN_ANOMALY":176.8303,"EPHEMERIS_TYPE":0,"NORAD_CAT_ID":62681,"ELEMENT_SET_NO":999,"REV_AT_EPOCH":14213,"BSTAR":0.0004266,"MEAN_MOTION_DOT":0.0001241,"MEAN_MOTION_DDOT":0}]}
