FLOCK 4G-23             
1 62647U 25009AQ  26204.70267613  .00047128  00000+0  13694-2 0  9993
2 62647  97.3918 286.4129 0003479 154.2900 205.8516 15.35317740 84522
FLOCK 4G-34             
1 62650U 25009AT  26204.69474560  .00010709  00000+0  37226-3 0  9999
2 62650  97.3953 286.1033 0002971 144.7918 215.3519 15.29905935 84492
FLOCK 4G-21             
1 62651U 25009AU  26204.20438610  .00041476  00000+0  12854-2 0  9997
2 62651  97.3982 286.6606 0003722 169.9109 190.2209 15.33305766 84478
FLOCK 4G-31             
1 62652U 25009AV  26204.66031264  .00010029  00000+0  35096-3 0  9996
2 62652  97.3960 286.0388 0002594 143.9669 216.1746 15.29707527 84486
FLOCK 4G-4              
1 62659U 25009BC  26204.42197906  .00039002  00000+0  12362-2 0  9995
2 62659  97.3934 285.6446 0005215 167.6160 192.5211 15.32595333142052
FLOCK 4G-6              
1 62660U 25009BD  26204.25493110  .00011498  00000+0  39718-3 0  9998
2 62660  97.3929 285.4894 0003713 174.4329 185.6953 15.30091930142011
FLOCK 4G-2              
1 62661U 25009BE  26204.18127461  .00010996  00000+0  37583-3 0  9994
2 62661  97.3997 286.0695 0004530 174.0360 186.0936 15.30446725142036
FLOCK 4G-5              
1 62663U 25009BG  26204.50000006  .00009032  00000+0  30387-3 0  9991
2 62663  97.4018 286.7965 0004201 157.2958 202.8470 15.31013938 84493
FLOCK 4G-1              
1 62666U 25009BK  26204.88614921  .00010942  00000+0  37528-3 0  9998
2 62666  97.4011 286.7508 0004830 169.6983 190.4357 15.30334110 84522
FLOCK 4G-14             
1 62667U 25009BL  26204.46198372  .00010518  00000+0  36612-3 0  9992
2 62667  97.4016 286.1193 0005044 166.8365 193.3007 15.29861517 84442
FLOCK 4G-10             
1 62670U 25009BP  26204.47234416  .00011295  00000+0  39168-3 0  9999
2 62670  97.3913 285.4174 0004558 181.9633 178.1591 15.29967260142083
FLOCK 4G-36             
1 62675U 25009BU  26204.66321646  .00010758  00000+0  37338-3 0  9997
2 62675  97.4004 286.2409 0005146 170.9919 189.1415 15.29947662 84478
FLOCK 4G-15             
1 62678U 25009BX  26204.47339079  .00014288  00000+0  49299-3 0  9999
2 62678  97.4009 286.1968 0005224 170.2305 189.9038 15.30069486142097
FLOCK 4G-30             
1 62679U 25009BY  26204.45938547  .00044508  00000+0  13298-2 0  9990
2 62679  97.3903 285.7464 0004874 173.1312 186.9999 15.34447601142104
FLOCK 4G-18             
1 62680U 25009BZ  26204.67912299  .00039100  00000+0  12354-2 0  9996
2 62680  97.3989 286.3481 0006857 182.8798 177.2406 15.32687313142126
FLOCK 4G-17             
1 62681U 25009CA  26204.69503006  .00012410  00000+0  42660-3 0  9990
2 62681  97.3913 285.8797 0004935 183.2906 176.8303 15.30226164142132
